CCSDS_OMM_VERS = 2.0
CREATION_DATE  = 
ORIGINATOR     = 

OBJECT_NAME    = RSP-03
OBJECT_ID      = 1998-067XL
CENTER_NAME    = EARTH
REF_FRAME      = TEME
TIME_SYSTEM    = UTC
MEAN_ELEMENT_THEORY = SGP/SGP4

EPOCH          = 2026-02-11T06:39:00.643392
MEAN_MOTION    = 16.08044301
ECCENTRICITY   = .0008894
INCLINATION    = 51.6134
RA_OF_ASC_NODE = 182.1263
ARG_OF_PERICENTER = 318.6316
MEAN_ANOMALY   = 41.4023

EPHEMERIS_TYPE = 0
CLASSIFICATION_TYPE = U
NORAD_CAT_ID   = 65732
ELEMENT_SET_NO = 999
REV_AT_EPOCH   = 2274
BSTAR          = .14937517E-2
MEAN_MOTION_DOT = .12651E-1
MEAN_MOTION_DDOT = .98900721E-3

CCSDS_OMM_VERS = 2.0
CREATION_DATE  = 
ORIGINATOR     = 

OBJECT_NAME    = YOTSUBA-KULOVER
OBJECT_ID      = 1998-067XN
CENTER_NAME    = EARTH
REF_FRAME      = TEME
TIME_SYSTEM    = UTC
MEAN_ELEMENT_THEORY = SGP/SGP4

EPOCH          = 2026-02-11T10:44:46.218624
MEAN_MOTION    = 15.71636990
ECCENTRICITY   = .000421
INCLINATION    = 51.6245
RA_OF_ASC_NODE = 192.4137
ARG_OF_PERICENTER = 279.1655
MEAN_ANOMALY   = 80.8867

EPHEMERIS_TYPE = 0
CLASSIFICATION_TYPE = U
NORAD_CAT_ID   = 65941
ELEMENT_SET_NO = 999
REV_AT_EPOCH   = 1936
BSTAR          = .11347014E-2
MEAN_MOTION_DOT = .151435E-2
MEAN_MOTION_DDOT = 0

CCSDS_OMM_VERS = 2.0
CREATION_DATE  = 
ORIGINATOR     = 

OBJECT_NAME    = BOTAN
OBJECT_ID      = 1998-067XP
CENTER_NAME    = EARTH
REF_FRAME      = TEME
TIME_SYSTEM    = UTC
MEAN_ELEMENT_THEORY = SGP/SGP4

EPOCH          = 2026-02-11T14:43:08.962752
MEAN_MOTION    = 15.86621128
ECCENTRICITY   = .0007161
INCLINATION    = 51.6169
RA_OF_ASC_NODE = 187.4637
ARG_OF_PERICENTER = 305.3332
MEAN_ANOMALY   = 54.7002

EPHEMERIS_TYPE = 0
CLASSIFICATION_TYPE = U
NORAD_CAT_ID   = 65942
ELEMENT_SET_NO = 999
REV_AT_EPOCH   = 1944
BSTAR          = .1520059E-2
MEAN_MOTION_DOT = .413748E-2
MEAN_MOTION_DDOT = 0

CCSDS_OMM_VERS = 2.0
CREATION_DATE  = 
ORIGINATOR     = 

OBJECT_NAME    = E-KAGAKU-1
OBJECT_ID      = 1998-067XQ
CENTER_NAME    = EARTH
REF_FRAME      = TEME
TIME_SYSTEM    = UTC
MEAN_ELEMENT_THEORY = SGP/SGP4

EPOCH          = 2026-02-11T10:46:11.740800
MEAN_MOTION    = 15.71525219
ECCENTRICITY   = .00038379
INCLINATION    = 51.6273
RA_OF_ASC_NODE = 192.4326
ARG_OF_PERICENTER = 294.8834
MEAN_ANOMALY   = 65.1765

EPHEMERIS_TYPE = 0
CLASSIFICATION_TYPE = U
NORAD_CAT_ID   = 65943
ELEMENT_SET_NO = 999
REV_AT_EPOCH   = 1936
BSTAR          = .11492757E-2
MEAN_MOTION_DOT = .152677E-2
MEAN_MOTION_DDOT = 0

CCSDS_OMM_VERS = 2.0
CREATION_DATE  = 
ORIGINATOR     = 

OBJECT_NAME    = HRC MONOBLOCK CAMERA
OBJECT_ID      = 1998-067XR
CENTER_NAME    = EARTH
REF_FRAME      = TEME
TIME_SYSTEM    = UTC
MEAN_ELEMENT_THEORY = SGP/SGP4

EPOCH          = 2026-02-11T10:45:57.957408
MEAN_MOTION    = 15.59478533
ECCENTRICITY   = .00013871
INCLINATION    = 51.6270
RA_OF_ASC_NODE = 197.6825
ARG_OF_PERICENTER = 357.2384
MEAN_ANOMALY   = 2.8601

EPHEMERIS_TYPE = 0
CLASSIFICATION_TYPE = U
NORAD_CAT_ID   = 66052
ELEMENT_SET_NO = 999
REV_AT_EPOCH   = 1829
BSTAR          = .63937026E-3
MEAN_MOTION_DOT = .51483E-3
MEAN_MOTION_DDOT = 0

CCSDS_OMM_VERS = 2.0
CREATION_DATE  = 
ORIGINATOR     = 

OBJECT_NAME    = HTV-X1
OBJECT_ID      = 2025-241A
CENTER_NAME    = EARTH
REF_FRAME      = TEME
TIME_SYSTEM    = UTC
MEAN_ELEMENT_THEORY = SGP/SGP4

EPOCH          = 2026-02-11T13:38:46.685760
MEAN_MOTION    = 15.48546282
ECCENTRICITY   = .00110981
INCLINATION    = 51.6315
RA_OF_ASC_NODE = 201.4814
ARG_OF_PERICENTER = 88.2914
MEAN_ANOMALY   = 271.9345

EPHEMERIS_TYPE = 0
CLASSIFICATION_TYPE = U
NORAD_CAT_ID   = 66174
ELEMENT_SET_NO = 999
REV_AT_EPOCH   = 51
BSTAR          = .18596766E-3
MEAN_MOTION_DOT = .9664E-4
MEAN_MOTION_DDOT = 0

CCSDS_OMM_VERS = 2.0
CREATION_DATE  = 
ORIGINATOR     = 

OBJECT_NAME    = SZ-21 MODULE
OBJECT_ID      = 2025-246C
CENTER_NAME    = EARTH
REF_FRAME      = TEME
TIME_SYSTEM    = UTC
MEAN_ELEMENT_THEORY = SGP/SGP4

EPOCH          = 2026-02-11T06:00:48.705408
MEAN_MOTION    = 15.66534609
ECCENTRICITY   = .00025886
INCLINATION    = 41.4767
RA_OF_ASC_NODE = 5.8583
ARG_OF_PERICENTER = 291.1599
MEAN_ANOMALY   = 68.8966

EPHEMERIS_TYPE = 0
CLASSIFICATION_TYPE = U
NORAD_CAT_ID   = 66515
ELEMENT_SET_NO = 999
REV_AT_EPOCH   = 1392
BSTAR          = .36324923E-3
MEAN_MOTION_DOT = .38901E-3
MEAN_MOTION_DDOT = 0

CCSDS_OMM_VERS = 2.0
CREATION_DATE  = 
ORIGINATOR     = 

OBJECT_NAME    = SHENZHOU-22
OBJECT_ID      = 2025-272A
CENTER_NAME    = EARTH
REF_FRAME      = TEME
TIME_SYSTEM    = UTC
MEAN_ELEMENT_THEORY = SGP/SGP4

EPOCH          = 2026-02-11T08:10:49.962720
MEAN_MOTION    = 15.59486743
ECCENTRICITY   = .00043285
INCLINATION    = 41.4683
RA_OF_ASC_NODE = 8.3426
ARG_OF_PERICENTER = 58.8849
MEAN_ANOMALY   = 301.2413

EPHEMERIS_TYPE = 0
CLASSIFICATION_TYPE = U
NORAD_CAT_ID   = 66645
ELEMENT_SET_NO = 999
REV_AT_EPOCH   = 26764
BSTAR          = .34954821E-3
MEAN_MOTION_DOT = .28284E-3
MEAN_MOTION_DDOT = 0

CCSDS_OMM_VERS = 2.0
CREATION_DATE  = 
ORIGINATOR     = 

OBJECT_NAME    = SOYUZ-MS 28
OBJECT_ID      = 2025-275A
CENTER_NAME    = EARTH
REF_FRAME      = TEME
TIME_SYSTEM    = UTC
MEAN_ELEMENT_THEORY = SGP/SGP4

EPOCH          = 2026-02-11T13:38:46.685760
MEAN_MOTION    = 15.48546282
ECCENTRICITY   = .00110981
INCLINATION    = 51.6315
RA_OF_ASC_NODE = 201.4814
ARG_OF_PERICENTER = 88.2914
MEAN_ANOMALY   = 271.9345

EPHEMERIS_TYPE = 0
CLASSIFICATION_TYPE = U
NORAD_CAT_ID   = 66664
ELEMENT_SET_NO = 999
REV_AT_EPOCH   = 128
BSTAR          = .18596766E-3
MEAN_MOTION_DOT = .9664E-4
MEAN_MOTION_DDOT = 0

CCSDS_OMM_VERS = 2.0
CREATION_DATE  = 
ORIGINATOR     = 

OBJECT_NAME    = DUPLEX
OBJECT_ID      = 1998-067XS
CENTER_NAME    = EARTH
REF_FRAME      = TEME
TIME_SYSTEM    = UTC
MEAN_ELEMENT_THEORY = SGP/SGP4

EPOCH          = 2026-02-11T15:03:35.552448
MEAN_MOTION    = 15.54392301
ECCENTRICITY   = .00013159
INCLINATION    = 51.6293
RA_OF_ASC_NODE = 199.6284
ARG_OF_PERICENTER = 78.7214
MEAN_ANOMALY   = 281.3924

EPHEMERIS_TYPE = 0
CLASSIFICATION_TYPE = U
NORAD_CAT_ID   = 66906
ELEMENT_SET_NO = 999
REV_AT_EPOCH   = 1107
BSTAR          = .53422613E-3
MEAN_MOTION_DOT = .35385E-3
MEAN_MOTION_DDOT = 0

CCSDS_OMM_VERS = 2.0
CREATION_DATE  = 
ORIGINATOR     = 

OBJECT_NAME    = ISS OBJECT XT
OBJECT_ID      = 1998-067XT
CENTER_NAME    = EARTH
REF_FRAME      = TEME
TIME_SYSTEM    = UTC
MEAN_ELEMENT_THEORY = SGP/SGP4

EPOCH          = 2026-02-11T14:25:39.292608
MEAN_MOTION    = 15.62280496
ECCENTRICITY   = .00017827
INCLINATION    = 51.6267
RA_OF_ASC_NODE = 197.9501
ARG_OF_PERICENTER = 270.9184
MEAN_ANOMALY   = 89.1605

EPHEMERIS_TYPE = 0
CLASSIFICATION_TYPE = U
NORAD_CAT_ID   = 66907
ELEMENT_SET_NO = 999
REV_AT_EPOCH   = 1109
BSTAR          = .12847459E-2
MEAN_MOTION_DOT = .11679E-2
MEAN_MOTION_DDOT = 0

CCSDS_OMM_VERS = 2.0
CREATION_DATE  = 
ORIGINATOR     = 

OBJECT_NAME    = ISS OBJECT XU
OBJECT_ID      = 1998-067XU
CENTER_NAME    = EARTH
REF_FRAME      = TEME
TIME_SYSTEM    = UTC
MEAN_ELEMENT_THEORY = SGP/SGP4

EPOCH          = 2026-02-11T14:24:44.310240
MEAN_MOTION    = 15.62315531
ECCENTRICITY   = .00016291
INCLINATION    = 51.6268
RA_OF_ASC_NODE = 197.9440
ARG_OF_PERICENTER = 276.2732
MEAN_ANOMALY   = 83.8077

EPHEMERIS_TYPE = 0
CLASSIFICATION_TYPE = U
NORAD_CAT_ID   = 66908
ELEMENT_SET_NO = 999
REV_AT_EPOCH   = 1109
BSTAR          = .12855118E-2
MEAN_MOTION_DOT = .117023E-2
MEAN_MOTION_DDOT = 0

