RSP-03                  
1 65732U 98067XL  26042.27709078  .01265100  98901-3  14938-2 0  9999
2 65732  51.6134 182.1263 0008894 318.6316  41.4023 16.08044301 22741
YOTSUBA-KULOVER         
1 65941U 98067XN  26042.44775716  .00151435  00000+0  11347-2 0  9996
2 65941  51.6245 192.4137 0004210 279.1655  80.8867 15.71636990 19362
BOTAN                   
1 65942U 98067XP  26042.61329818  .00413748  00000+0  15201-2 0  9995
2 65942  51.6169 187.4637 0007161 305.3332  54.7002 15.86621128 19442
E-KAGAKU-1              
1 65943U 98067XQ  26042.44874700  .00152677  00000+0  11493-2 0  9992
2 65943  51.6273 192.4326 0003837 294.8834  65.1765 15.71525219 19366
HRC MONOBLOCK CAMERA    
1 66052U 98067XR  26042.44858747  .00051483  00000+0  63937-3 0  9991
2 66052  51.6270 197.6825 0001387 357.2384   2.8601 15.59478533 18298
HTV-X1                  
1 66174U 25241A   26042.56859590  .00009664  00000+0  18597-3 0  9996
2 66174  51.6315 201.4814 0011098  88.2914 271.9345 15.48546282   510
SZ-21 MODULE            
1 66515U 25246C   26042.25056372  .00038901  00000+0  36325-3 0  9998
2 66515  41.4767   5.8583 0002588 291.1599  68.8966 15.66534609 13925
SHENZHOU-22             
1 66645U 25272A   26042.34085605  .00028284  00000+0  34955-3 0  9992
2 66645  41.4683   8.3426 0004328  58.8849 301.2413 15.59486743267648
SOYUZ-MS 28             
1 66664U 25275A   26042.56859590  .00009664  00000+0  18597-3 0  9997
2 66664  51.6315 201.4814 0011098  88.2914 271.9345 15.48546282  1289
DUPLEX                  
1 66906U 98067XS  26042.62749482  .00035385  00000+0  53423-3 0  9996
2 66906  51.6293 199.6284 0001315  78.7214 281.3924 15.54392301 11074
ISS OBJECT XT           
1 66907U 98067XT  26042.60114922  .00116790  00000+0  12847-2 0  9994
2 66907  51.6267 197.9501 0001782 270.9184  89.1605 15.62280496 11091
ISS OBJECT XU           
1 66908U 98067XU  26042.60051285  .00117023  00000+0  12855-2 0  9996
2 66908  51.6268 197.9440 0001629 276.2732  83.8077 15.62315531 11096
